[{"OBJECT_NAME":"SHIYAN-6 01 (SY-6 01)","OBJECT_ID":"2018-094B","EPOCH":"2026-03-09T23:04:36.967872","MEAN_MOTION":15.28649156,"ECCENTRICITY":0.00144834,"INCLINATION":97.3669,"RA_OF_ASC_NODE":84.0964,"ARG_OF_PERICENTER":135.6758,"MEAN_ANOMALY":224.5644,"EPHEMERIS_TYPE":0,"CLASSIFICATION_TYPE":"U","NORAD_CAT_ID":43711,"ELEMENT_SET_NO":999,"REV_AT_EPOCH":40632,"BSTAR":0.00024768444,"MEAN_MOTION_DOT":6.847e-5,"MEAN_MOTION_DDOT":0},{"OBJECT_NAME":"STARLINK-31448","OBJECT_ID":"2024-080L","EPOCH":"2026-03-09T07:21:30.632256","MEAN_MOTION":15.27580783,"ECCENTRICITY":0.00014735,"INCLINATION":43.0048,"RA_OF_ASC_NODE":36.646,"ARG_OF_PERICENTER":247.8128,"MEAN_ANOMALY":112.2567,"EPHEMERIS_TYPE":0,"CLASSIFICATION_TYPE":"U","NORAD_CAT_ID":59611,"ELEMENT_SET_NO":999,"REV_AT_EPOCH":10451,"BSTAR":5.521944e-6,"MEAN_MOTION_DOT":-1.1e-6,"MEAN_MOTION_DDOT":0}]
